BusinessName,Telephone,Email,WebsiteURL,Linkedin,FacebookProfile,Instagram,Twitter,GMB_Claimed,Address,City,State,ZIP,Country
"Bartlett Tree Experts - Pisgah Forest","(828) 877-6601",amaze@bartlett.com,https://www.bartlett.com/locations/Pisgah-Forest-NC.cfm,https://www.linkedin.com/company/bartlett-tree-experts,https://www.facebook.com/bartlettbeaufort/,https://instagram.com/lifeatbartlett/,https://www.twitter.com/bartletttreeexp,verified,"2510 Old Hendersonville Hwy","Pisgah Forest",NC,28768,US
"Thompson Improvements Pro Services","(828) 290-8251",james@tipswnc.com,https://tipswnc.com/,https://www.linkedin.com/company/tipswnc,https://www.facebook.com/tipswnc/,https://instagram.com/tipswnc/,https://www.twitter.com/tipswnc,verified,"81 Alfson Cir",Hendersonville,NC,28792,US
"Arbormatrics Solutions Inc","(828) 676-1335",reg049@asplundh.com,https://asplundh.com/,https://www.linkedin.com/company/asplundhtree,https://www.facebook.com/asplundhtreeexpert/,https://instagram.com/asplundh_tree/,https://www.twitter.com/asplundh_tree,unclaimed,"52 Ravencroft Ln",Asheville,NC,28803,US
"Lawn Doctor of Asheville-Waynesville","(828) 667-2484",ld1292@lawndoctor.com,https://www.lawndoctor.com/asheville-nc,https://www.linkedin.com/company/lawn-doctor-of-antioch,https://www.facebook.com/lawndoctorilm/,https://instagram.com/lawndoctorinc/,https://www.twitter.com/lawndoctor,verified,"35 New Clyde Hwy",Canton,NC,28716,US
"College Hunks Hauling Junk & Moving - Asheville","(828) 522-9157",alex.coveney@chhj.com,https://www.collegehunkshaulingjunk.com,https://www.linkedin.com/company/college-hunks-hauling-junk,https://www.facebook.com/collegehunksbostonsouth/,https://instagram.com/collegehunks/,https://www.twitter.com/collegehunks,verified,"6 Celtic Dr Unit B1",Arden,NC,28704,US
"Tree To Treasure Home Imp","(828) 273-2712",info@asheville-treehouses.com,https://asheville-treehouses.com/,,https://www.facebook.com/worldtreehouses/,https://instagram.com/worldtreehouses9/,https://www.twitter.com/worldtreehouses,unclaimed,"41 Lora Ln",Asheville,NC,28803,US
"Snow Creek Landscaping LLC","(828) 687-1677",info@snowcreekinc.com,http://www.snowcreekinc.com/,https://www.linkedin.com/company/snow-creek-landscaping-llc,https://www.facebook.com/snowcreekllc/,https://instagram.com/snowcreeklandscaping/,,verified,"226 Clayton Rd",Arden,NC,28704,US
"TruGreen Lawn Care","(828) 348-6976",ashleyyelverton@trugreenmail.com,https://www.trugreen.com/,https://www.linkedin.com/company/trugreen,https://www.facebook.com/trugreen/,https://instagram.com/trugreen_lawn/,,verified,"145 Brooks Cove Rd",Candler,NC,28715,US
"Asheville Treetops Adventure Park","(877) 247-5539",koloprograms@adventurecenterofasheville.com,http://www.ashevilletreetopsadventurepark.com/asheville-treetops-adventure-park,https://www.linkedin.com/company/adventure-center-of-asheville,https://www.facebook.com/kolobikepark/,https://instagram.com/adventureavl/,,verified,"85 Expo Dr",Asheville,NC,28806,US
"Organic Tree Services","(828) 707-6216",doug@organictreeservices.com,http://organictreeservices.com/,,https://www.facebook.com/organictreeservice/,https://instagram.com/dougjohnson92/,,verified,"50 Nevada Ave",Asheville,NC,28804,US
"Carolina Tree Monkeys LLC","(828) 329-1371",tclavette@gmail.com,http://carolinatreemonkeys.com/,,https://www.facebook.com/carolinatreemonkeys/,https://instagram.com/carolinatreemonkeys/,,verified,"1120 Charlotte Hwy",Fairview,NC,28730,US
"Epperson Tree Service","(828) 532-2017",eppersontreemgr@gmail.com,https://eppersontreeservice.com/,,https://www.facebook.com/eppersonstreeservice/,https://instagram.com/epperson.tree/,,verified,"7 Laycock Rd",Hendersonville,NC,28792,US
"Blue Oak Affordable Tree Solutions LLC","(828) 785-9123",blueoak308@gmail.com,https://www.blueoaktreesolutions.com/,,https://www.facebook.com/blueoaktree308/,https://instagram.com/blueoaktree308/,,verified,"56 Landis Rd",Marion,NC,28752,US
"Edmonds Landscaping","(828) 423-1058",edmondsunlimited@gmail.com,https://edmondslandscapingllc.com/,,https://www.facebook.com/edmondslandscaping1/,https://instagram.com/edmondslandscaping/,,verified,"120 Bailey Rd",Candler,NC,28715,US
"Rugged Rock Landscaping","(828) 989-5866",sam@ruggedrocklandscaping.com,http://www.ruggedrocklandscaping.com,,https://www.facebook.com/ruggedrocklandscaping/,https://instagram.com/ruggedrocklandscaping/,,verified,"261 Pinners Cove Rd",Asheville,NC,28803,US
"Big Trees To Go","(828) 274-7225",info@gardensforliving.com,http://gardensforliving.com/,,https://www.facebook.com/gardensforliving/,https://instagram.com/gardensforliving/,,verified,"21 Sweeten Creek Rd",Asheville,NC,28803,US
"Less Tree Services","(828) 628-0350",howelltreeremoval1@gmail.com,https://howelltreeremoval.com/,https://www.linkedin.com/company/howell-tree-removal,,https://instagram.com/howelltreeremoval/,https://www.twitter.com/howelltreeavl,unclaimed,"293 Old Fort Rd",Fairview,NC,28730,US
"Sokol Landscaping","(828) 398-0559",sokollandscaping@gmail.com,https://sokollandscaping.com/,https://www.linkedin.com/company/sokol-landscaping,,https://instagram.com/sokol_landscaping/,https://www.twitter.com/sokolandscaping,verified,"11 Poppas Way",Asheville,NC,28806,US
"Green Outdoors Landscaping Nursery","(828) 645-5298",livingwater101@hotmail.com,https://livingwaterslandscaping.com/,https://www.linkedin.com/company/living-waters-landscaping,,https://instagram.com/living_waters_landscaping/,https://www.twitter.com/livingwaters101,verified,"91 Weaverville Rd",Asheville,NC,28804,US
"The Hemlock Doc Tree Service","(828) 707-8625",theyardbro@gmail.com,http://www.theyardbro.com/,,,https://instagram.com/theyardbro/,https://www.twitter.com/theyardbro,unclaimed,"47 Main St",Asheville,NC,28803,US
"Carolina Tree Service","(828) 442-5770",carolinatreeservice1214@gmail.com,http://www.carolina-treeservice.com/,,,https://instagram.com/carolinatreeservicee1214/,https://www.twitter.com/carolinatreesvc,verified,"33 Pine St",Marion,NC,28752,US
"Oak Tree Recovery","(828) 275-1319",,https://halfwayhouseasheville.com/contact-us/,,,https://instagram.com/oaktreerecoveryhomes/,https://www.twitter.com/oaktreeavlnc,verified,"125 Holcombe Cove Rd",Candler,NC,28715,US
"Heartwood Tree Service Asheville NC","(828) 231-6008",nigemord@gmail.com,https://www.heartwoodtree.com/Who-We-Are/Location-Asheville-NC,https://www.linkedin.com/company/heartwood-tree-service-llc.,,https://instagram.com/heartwoodclt/,,verified,"1315 Tunnel Rd",Asheville,NC,28805,US
"New Leaf Tree Service","(828) 423-2063",newleaftreeservicejess@gmail.com,https://www.newleaftreeservice.com/,https://www.linkedin.com/company/new-leaf-tree-service,,https://instagram.com/newleaftree/,,verified,"Sweeten Creek Rd",Asheville,NC,NC,US
"Wildwood Consulting -Forestry Consultant, NC Registered Forester, ISA Arborist","(828) 284-7871",richard@wildwoodconsultingllc.com,https://wildwood-consulting.com/,https://www.linkedin.com/in/richard-sanders-78010719,,https://instagram.com/wildwoodconsulting/,,verified,"398 Old Haw Creek Rd",Asheville,NC,28805,US
"Crooked Tree Creative","(828) 424-7532",gbroome@crookedtreecreative.com,https://crookedtreecreative.com/,https://www.linkedin.com/company/crooked-tree-creative,,https://instagram.com/crookedtreeavl/,,verified,"12 Old Charlotte Hwy",Asheville,NC,28803,US
"Paul Patton Tree Services","(828) 254-7020",gdljunkremovalservices@gmail.com,https://gdljunkremovalservices.com/,,,https://instagram.com/gdljunkremovalservicesllc/,,unclaimed,"Asheland Ave",Asheville,NC,28801,US
"3 Elements Landscaping Inc","(828) 767-9921",landscaping@gmail.com,http://www.3elandscaping.com/,,,https://instagram.com/3elementslandscaping/,,verified,"30 Watauga St",Asheville,NC,28801,US
"Pro Tree Care","(828) 231-5008",frontdesk@heartwoodtree.com,http://www.ashevilletreecare.com/,,,https://instagram.com/heartwoodclt/,,unclaimed,"Asheland Ave",Asheville,NC,28801,US
"Murphys Tree Services","(828) 778-4549",treeservicesasheville@gmail.com,http://www.treeservicesofasheville.com/,,,https://instagram.com/asheville_affordable_tree_men/,,verified,"135 Vance Hill Dr","Mills River",NC,28792,US
"Jimenez Landscaping","(828) 545-1993",info@nimblegardener.com,http://www.nimblegardener.com/,,,https://instagram.com/digplantrepeat/,,verified,"155 Lower Edgewood Rd",Candler,NC,28715,US
"TARZAN THE TREEMAN, LLC","(828) 712-0006",info@tarzanthetreeman.com,http://www.tarzanthetreeman.com/,,,https://instagram.com/tarzan_the_treeman/,,verified,"60 Old Fort Rd",Fairview,NC,28730,US
"Limbwalkers Tree & Crane Service","(828) 413-7227",kaleb@limbwalkersnc.com,https://www.limbwalkersnc.com/,,,https://instagram.com/limbwalkersnc/,,verified,"1006 St Marys Church Rd",Morganton,NC,28655,US
"Red Tree Builders. Inc.","(828) 202-5131",jessica@redtreebuilders.com,http://www.redtreebuilders.com/,,,https://instagram.com/redtreebuilders/,,verified,"301 Merrimon Ave",Asheville,NC,28804,US
"B.B. Barns","(828) 650-7300",bbbarnslandscape@bbbarns.com,https://bbbarns.com/,,,https://instagram.com/bbbarns/,,verified,"3377 Sweeten Creek Rd",Arden,NC,28704,US
"Earthworks Tree Services, INC","(828) 547-3469",merissa.earthworks@gmail.com,http://www.earthworkswnc.com/,,,https://instagram.com/reel/,,verified,"4380 Eller Ford Rd",Weaverville,NC,28787,US
"Daniels Property Maintenance and Landscaping","(828) 773-4408",dylan@appalachianecoscapes.com,http://appalachianecoscapes.com/,,,https://instagram.com/appalachianecoscapes/,,unclaimed,"67 Kentucky Dr",Asheville,NC,28806,US
"The Family Tree Service","(828) 556-5500",info@thefamilytreeservice.com,http://thefamilytreeservice.com/,,,https://instagram.com/thefamilytreeservicellc/,,verified,"10 Cuckoo Ln",Arden,NC,28704,US
"Fullers Tree Service","(828) 777-1811",fullertreeservice@gmail.com,https://fullertreeservice.com/,,,https://instagram.com/kevnfuller/,,verified,"18680 River Rd",Barnardsville,NC,"V6V 1M2",US
"""Those Guys"" Landscaping, LLC","(828) 712-7901",thoseguyslandscape@gmail.com,https://www.thoseguyslandscape.com/,,,https://instagram.com/thoseguyslandscape/,,verified,"14 E Mountain Way",Asheville,NC,28805,US
"Arbor Pro Tree Removal","(828) 779-2727",lm.ramirez77@yahoo.com,https://www.angi.com/companylist/us/nc/asheville/arbor-pros-of-asheville-reviews-8201762.htm,,,https://instagram.com/angi/,,verified,"10 La Rue St",Asheville,Nc,28806,US
"JC Property Professionals","(828) 559-8222",info@jcpropertyprofessionals.com,https://www.jcpropertyprofessionals.com,,,https://instagram.com/jcpropertyprofessionals/,,verified,"1767 East Court St",Marion,NC,28752,US
"Gardens of Eatin Landscaping","(828) 649-9627",gardensofeatin@gmail.com,http://www.gardensofeatin.net,,,https://instagram.com/gardensofeatin/,,unclaimed,"1303 Spake Cir",Asheville,NC,28715,US
"Ground To Crown Tree Care","(828) 450-8934",groundtocrowntreecare@yahoo.com,http://groundtocrowntreecare.com,,,https://instagram.com/groundtocrowntreecareasheville/,,,,"Black Mountain",NC,28711,US
YummyYards,"(828) 785-8624",laura@yummyyards.com,http://yummyyards.com,,,https://instagram.com/yummyyards/,,unclaimed,"82 Patton Ave",Asheville,NC,28806,US
"Petersen Tree & Landscape Management","(828) 298-9384",,http://zrlandscapingandgrading.com/,,,https://instagram.com/zrlandscapingandgrading/,,unclaimed,"23 Worley Bird Ln",Swannanoa,NC,28778,US
"Browns Arbor Care","(336) 525-1209",,http://brownsarborcare.com/,,,https://instagram.com/arbor.ninja/,,verified,"3161 John Oakley Rd","Prospect Hill",NC,27278,US
"Native Tree Works","(828) 206-0850",,https://nativetreework.com/,,,https://instagram.com/nativetreework/,,verified,"159 Spothorse Ln",Marshall,NC,28803,US
"LawnStarter Lawn Care Service","(866) 822-1766",schooner210@icloud.com,https://www.lawnstarter.com/asheville-nc-lawn-care,https://www.linkedin.com/company/lawnstarter,https://www.facebook.com/lawnstarter/,,https://www.twitter.com/lawnstarter,verified,"52 Broadview Dr",Asheville,NC,28803,US
"Above All Tree Services","(828) 775-1676",partners@judysbookteam.com,https://judysbook.com/above-all-tree-services-btob~broadcast-services-asheville-r39810808.htm,https://www.linkedin.com/company/judy,https://www.facebook.com/judysbook/,,https://www.twitter.com/judysbook,verified,"546 Pond Rd",Asheville,NC,28806,US
"J & B Tree Services","(828) 684-1083",topnotchtreenc@gmail.com,https://toptreeservicelakenorman.com/,,https://www.facebook.com/162854850567051/,,https://www.twitter.com/topnotchtreenc,unclaimed,"85 Billy Acres Dr",Fletcher,NC,28732,US
"Turning Leaf Tree Service","(828) 808-9770",turningleaftreeservice@gmail.com,http://turningleaftreenc.com,,https://www.facebook.com/turningleaftreeservice/,,https://www.twitter.com/turningleaftree,,,Asheville,NC,28805,US
"B&B Tree Service Inc","(828) 778-1987",shannonandjamie26@gmail.com,https://www.bb-treeservicenc.com/,https://www.linkedin.com/in/craig-beam-bb-treeservicenc,https://www.facebook.com/bandbtreeservice/,,,verified,"831 Charlotte Hwy",Fairview,NC,28730,US
"B & B Tree Service","(828) 778-1987",shannonandjamie26@gmail.com,https://www.beamstree.com/,https://www.linkedin.com/in/craig-beam-bb-treeservicenc,https://www.facebook.com/bandbtreeservice/,,,verified,"831 Charlotte Hwy",Fairview,NC,28730,US
"V&V Land Management & Resource Recovery","(828) 777-6637",carrie@voglerllc.com,http://voglerllc.com/,https://www.linkedin.com/company/v&v-land-management-and-resource-recovery-llc,https://www.facebook.com/voglerllc/,,,verified,"101 Old Mars Hill Hwy",Weaverville,NC,28787,US
"Top Notch Tree Care LLC","(828) 273-3467",stephen@topnotchtreeavl.com,http://www.topnotchtreeavl.com/,,https://www.facebook.com/topnotchtreecarellc/,,,verified,"144 Biltmore Ave",Asheville,NC,28801,US
"Clear View Tree Services LLC","(828) 772-7193",clearviewtreeserviceasheville@gmail.com,https://clearviewtreeservice-treeservice.business.site/,,https://www.facebook.com/clearviewtreeservicenc/,,,verified,"47 Evelake Dr",Asheville,NC,28806,US
"Asheville Hemlock Specialists","(828) 505-2819",abovealltreeavl@gmail.com,http://www.abovealltreeservicenc.com/,,https://www.facebook.com/1004060839700838/,,,unclaimed,"101 Broadway St",Asheville,NC,28801,US
"Canopy Tree Care LLC","(828) 776-9926",treeninja.avl@gmail.com,https://www.ashevilletreeninja.com/,,https://www.facebook.com/ashevilletreeninja/,,,verified,"48 Haw Creek Cir",Asheville,NC,28805,US
"R & K Tree Service","(828) 216-6407",copellc2001@gmail.com,https://www.treeserviceclydenc.com/,,https://www.facebook.com/311256596236176/,,,verified,"30 Old Mars Hill Hwy",Weaverville,NC,28787,US
"Alvarez Tree Service","(828) 273-8742",sladetruckingllc@gmail.com,http://www.autreylandscaping.com/,,https://www.facebook.com/sladetrucking/,,,verified,"275 Deaverview Rd",Asheville,NC,28806,US
"Turners Logging","(828) 252-0319",ryan@appalachiantreecare.com,http://appalachiantreecare.com/,,https://www.facebook.com/388926587962301/,,,verified,"16 Rotunda Cir",Asheville,NC,28806,US
"Top Branch Tree Service","(828) 699-0294",topbranch77@gmail.com,http://topbranchtreeservice.com/,,https://www.facebook.com/336261393613201/,,,verified,"3372 Turnpike Rd","Horse Shoe",NC,28742,US
"Neil the tree man","(828) 545-0050",hbraswellgrading@gmail.com,https://warrior-tree-service.business.site/,,https://www.facebook.com/hbraswellgrading/,,,verified,"1011 Clark Branch Rd",Asheville,NC,28806,US
"Greenspan Landcare","(828) 329-0512",crwlandservices@gmail.com,http://www.greenspanlandcare.com/,,https://www.facebook.com/crwlandservices/,,,verified,"517 Azalea Ave","Black Mountain",NC,28711,US
"J K Enterprise of WNC, Inc.","(828) 508-1821",jkelandscape@gmail.com,http://www.jkelandscape.com/,,https://www.facebook.com/jkenterprise1/,,,verified,"1425 Hendersonville Hwy","Pisgah Forest",NC,28712,US
"Lee's Tree Service","(828) 215-9819",jeremycerce@gmail.com,https://www.leestreeserviceco.com/,,https://www.facebook.com/carolinalawncare/,,,verified,"89 Maney Ave",Asheville,NC,28804,US
"Grizzlybear Arborcare","(828) 712-2400",grizzly@grizzlybeararborcare.com,https://www.grizzlybeararborcareasheville.com/,,https://www.facebook.com/ashevilletreelove/,,,,"47 Buchanan Ave",Asheville,NC,28801,US
"Los romero's tree service","(828) 284-9099",samuelrom13@gmail.com,https://www.losromerostreeservices.com/,,https://www.facebook.com/150318078900101/,,,unclaimed,"387 Swiss Loop",Burnsville,NC,28714,US
"San's Tree Service","(828) 407-9728",snolasco32@gmail.com,https://www.sanstreeservice.com,,https://www.facebook.com/786969221400718/,,,verified,"45 Country Meadows Dr",Asheville,NC,28806,US
"Gravely Hydroseeding & Excavating","(828) 388-1601",gravelyhydroseed@att.net,http://grading2hydroseeding.com,,https://www.facebook.com/1612431755654759/,,,unclaimed,NC-108,Hendersonville,NC,28739,US
"WNC Landscaping","(828) 926-3224",brian@wnclandscaping.com,http://www.wnclandscaping.com,,https://www.facebook.com/wnc.landscaping./,,,verified,"557 Hemphill Rd",Waynesville,NC,28785,US
"Wood Lawn","(703) 304-3531",chris@woodlawnwnc.com,https://woodlawnwnc.com,,https://www.facebook.com/woodlawnwnc/,,,verified,"312 Foxcroft Dr",Asheville,NC,28806,US
"All Pro Tree & Crane","(828) 674-7336",allprotreeandcrane@gmail.com,https://www.allprotreeandcranezirconia.com,,https://www.facebook.com/crwlandservices/,,,verified,"2973 NC-108",Zirconia,NC,28790,US
"Asheville Arborists","(828) 778-8733",,https://www.ashevillearborists.com/,,https://www.facebook.com/atrustyshovel/,,,verified,"36 Old Charlotte Hwy",Asheville,NC,28803,US
"Disaster Masters Tree Service Specialist","(479) 466-7483",,https://www.truesdelltree.com/,,https://www.facebook.com/truesdelltree/,,,verified,"292 Brookside Camp Rd",Hendersonville,NC,28792,US
"Affordable tree service","(828) 208-3935",,https://affordabletreesllc.com/,,https://www.facebook.com/foothillsmulchstone/,,,verified,"10 Garrison Branch Rd",Weaverville,NC,28787,US
"Adam Young Trucking & Grading","(828) 284-4095",,http://adamyoungtruckingandgradingllc.godaddysites.com,,https://www.facebook.com/110158518127453/,,,verified,"56 Burnett Cemetery Rd","Spruce Pine",NC,28777,US
"David's Tree Service","(828) 687-0075",,,,https://www.facebook.com/davidstreeservicewnc/,,,,"138 Shamrock Dr",Asheville,NC,28803,US
"A Trusty Shovel","(217) 483-7109",,https://atrustyshovel.business.site/,,https://www.facebook.com/atrustyshovel/,,,verified,"34 Carrier St",Asheville,NC,28806,US
"T&R tree and landscape","(828) 676-5571",,,,https://www.facebook.com/dockery55/,,,,"112 Mundy Cove Rd",Weaverville,NC,28787,US
"Family Tree Services","(828) 276-2087",psalmeron77@yahoo.com,https://www.family-tree-services.com/,,,,https://www.twitter.com/qualitytree1,verified,"522 Deaverview Rd",Asheville,NC,28806,US
"Beams lawn & Landscape","(828) 778-4282",lewis@beamslawn.com,https://www.beamslawn.com/,,,,https://www.twitter.com/beamslawn,verified,"80 Garren Creek Rd",Fairview,NC,28730,US
"Quality Tree Services","(828) 633-4357",psalmeron77@yahoo.com,https://www.ashevilletreeremovals.com/,,,,https://www.twitter.com/qualitytree1,,"22 Rollie Ln",Asheville,NC,28806,US
"Newcomb Tree Service","(828) 777-1226",,http://www.newcombtreeservice.com/,,,,https://www.twitter.com/newcombtreeserv,verified,"2585 US-70",Swannanoa,NC,28778,US
"Glenn Tech Enterprises","(828) 334-7007",,https://www.glenntechenterprises.com/,,,,https://www.twitter.com/glenntechnc,verified,"82 Daniel Ridge Rd",Candler,NC,28715,US
"Garden Center at The Home Depot","(828) 274-5400",mathew_halpern@homedepot.com,https://www.homedepot.com/l/Asheville/NC/Asheville/28803/3625/garden-center,https://www.linkedin.com/company/the-home-depot,,,,verified,"795 Fairview Rd",Asheville,NC,28803,US
"Royce's Tree Service","(828) 768-2747",jonathan.rowland84@gmail.com,https://roycestreeservice.com/contact,https://www.linkedin.com/company/royce-s-tree-service,,,,verified,"156 Hanover St",Asheville,NC,28806,US
"U.S. Lawns - Asheville","(828) 890-8154",justin.holifield@uslawns.net,https://uslawns.com/locations/nc/asheville/,https://www.linkedin.com/company/uslawns,,,,verified,"5660 Old Haywood Rd","Mills River",NC,28759,US
"Asheville Tree Service","(828) 232-6269",,https://www.treeremovalasheville.com/,https://www.linkedin.com/company/asheville-tree-service,,,,verified,"321 Haywood Rd #1",Asheville,NC,28806,US
"Avatara Services, LLC","(828) 619-0311",,http://www.avataraservicesllc.com/,https://www.linkedin.com/company/avatara-services-llc,,,,verified,"46 Haywood St #101",Asheville,NC,28801,US
"Asheville Arborcare","(828) 565-1984",chedens@gmail.com,http://ashevillearborcare.com/,,,,,verified,"1141 Tunnel Rd",Asheville,NC,28815,US
"Sherwood Forest Tree Services Inc","(828) 777-8384",ashevillelawnwork@gmail.com,http://ashevillelawnwork.com/,,,,,unclaimed,"Asheland Ave",Asheville,NC,28801,US
"New Leaf Tree Service","(828) 423-2063",chad@newleaftree.net,http://www.newleaftree.net/,,,,,verified,"Sweeten Creek Rd",Asheville,NC,28803,US
"Appalachian Arborists","(828) 225-2985",appalachianarbor@bellsouth.net,http://www.appalachianarborists.com/,,,,,verified,"Asheland Ave",Asheville,NC,28801,US
"BuckTom Services, LLC","(828) 281-2825",bucktomservices@gmail.com,https://bucktom.com/,,,,,verified,"431 Old County Home Rd",Asheville,NC,28806,US
"Arbor Pros Tree Service","(828) 779-2727",arborprostree@gmail.com,http://arborprosavl.com/,,,,,verified,"10 La Rue St",Asheville,NC,28806,US
"Asheville Hemlock Specialists","(828) 989-9367",info@baileytreepreservation.com,http://www.baileytreepreservation.com/,,,,,unclaimed,"100 Middlemont Ave",Asheville,NC,28806,US
"North American Trees","(828) 707-1722",tothersidell@gmail.com,https://century-tree-service.business.site/,,,,,verified,"1312 Old Spartanburg Rd unit 207",Hendersonville,NC,28805,US
"Banks Tree Service","(828) 667-3150",felix@felixtreeexpert.com,https://treeservicefranklinnc.com/,,,,,verified,"1775 Smokey Park Hwy",Candler,NC,28715,US
"Affordable tree service","(828) 440-2835",affordabletreecare5@gmail.com,https://www.affordabletreecarewnc.com/,,,,,unclaimed,"10 Garrison Branch Rd #7",Weaverville,NC,28787,US
"Roys Tree Service","(828) 696-6169",darlaerickson64@gmail.com,http://www.roytreeservice.net/,,,,,verified,"2346 Jeffress Rd","Mills River",NC,28759,US
"Jacobs Tree Services","(828) 388-1950",burnstree.stump@gmail.com,https://www.burnstreeandcrane.com/,,,,,verified,"2660 Greater Druid Hills Blvd",Hendersonville,NC,28791,US
"Best Tree Care Service","(828) 698-3013",info@treesunlimitedasheville.com,http://treesunlimitedasheville.com/,,,,,verified,"16 Cherry Hill Dr",Hendersonville,NC,28791,US
"Kindy Land Management & Transport","(828) 747-2600",jancheves@gmail.com,http://toddkindy.weebly.com/,,,,,unclaimed,"123 Christian Creek Rd",Swannanoa,NC,28778,US
"Greentree Lawn & Tree Services","(828) 707-4452",contact@newdaygrasscare.com,https://newdaygrasscare.com/,,,,,unclaimed,"Asheland Ave",Asheville,NC,28801,US
"Usa Tree Service INC","(828) 490-5364",smokymountaintree@gmail.com,https://usatreeservice.business.site/,,,,,verified,"119 Kristey Ln",Hendersonville,NC,28792,US
"Gary Cox Logging Services","(828) 692-1563",smokymountaintree@gmail.com,https://martin-grading-and-excavating-llc.business.site/,,,,,verified,"492 N Clear Creek Rd",Hendersonville,NC,28792,US
"High Country Tree Services Inc","(828) 220-3161",jw@hctreeservice.com,https://www.hctreeservice.com/,,,,,unclaimed,"407 Whitener Rd","Pisgah Forest",NC,28768,US
"Holberts Tree Service","(828) 243-1806",stenjul1@aol.com,http://www.holbertstreeservice.com/,,,,,verified,"93 Chastain Hill Rd","Mills River",NC,28759,US
"Mountain Tree Professionals","(828) 214-9747",service@mountaintreeprofessionals.com,https://mountaintreeprofessionals.com/,,,,,verified,"115 Friendly Farm Rd",Penrose,NC,28766,US
"All Seasons Landscape & Lawn Care","(828) 683-2122",allseasonstony@aol.com,http://www.allseasonslandscapelawncare.com/,,,,,verified,"208 Keystone Dr",Asheville,NC,28806,US
"Disaster Recovery Group and Tree Service, Inc","(828) 684-3961",bids@drgts.com,http://drgts.com/contactus.html,,,,,verified,"556 Long Shoals Rd",Arden,NC,28704,US
"ig&yn tree services llc","(828) 696-6760",igtreeservicesllc@gmail.com,http://igandyntreeservicesllc.com/,,,,,verified,"5230 Brevard Rd","Horse Shoe",NC,28742,US
"Neat Yards","(828) 777-3908",info@neatyards.com,http://www.neatyards.com/,,,,,unclaimed,"Asheville, NC 28801",Asheville,NC,28801,US
"ATC tree care","(828) 208-2599",tothersidell@gmail.com,https://kevin-allens-tree-service.business.site/,,,,,unclaimed,"3743 Hendersonville Rd",Fletcher,NC,28732,US
"Trees Out","(828) 606-5536",smokymountaintree@gmail.com,https://rhodes-stump-removal-excavating.business.site/,,,,,unclaimed,"Mountain Home, NC 28758",,,,US
"Hidden Valley Tree Service","(828) 276-6257",ryanjones@hiddenvalleytreeservice.com,https://hidden-valley-tree-service.ueniweb.com/,,,,,verified,"52 Stanley Dr",Canton,NC,28716,US
"Legacy Arbor Solutions","(717) 860-8049",legacyarborsolutions@gmail.com,https://legacyarborsolutions.wordpress.com/,,,,,verified,"75 Sand Hill School Rd",Asheville,NC,28768,US
"Southern Appalachian Wood","(282) 731-0340",gary.bolick@sawmonger.com,https://www.southernappalachianwood.com/,,,,,verified,"11 White Oak Forest Ln Rd",Fairview,NC,28730,US
"Brass Oak Tree Care","(828) 680-2467",brass_oak@yahoo.com,https://brass-oak-tree-care.business.site/,,,,,verified,"3625 Paint Fork Rd","Mars Hill",NC,28754,US
"WNC CRUZ TREE SERVICE LLC","(828) 803-4851",cruzcontractornc16@gmail.com,https://wnccruztreeandlandscaping.com/,,,,,verified,"115 Estelle Ln","Spruce Pine",NC,28777,US
"Lane Outdoor LLC","(828) 490-2030",laneoutdoor@gmail.com,http://laneoutdoor.net/,,,,,verified,"110 Mimosa Rd",Columbus,NC,28722,US
"Tomahawk Clearing","(828) 989-4684",beau@tomahawkclearing.com,https://www.tomahawkclearing.com/,,,,,verified,"2192 Dartmouth Rd",Hendersonville,NC,28791,US
"Asheville Arborcare","(828) 565-1984",chedens@gmail.com,https://egltree.webs.com/,,,,,verified,"1141 Tunnel Rd",Asheville,NC,28805,US
"Mountain Air Tree Care LLC","(828) 989-1931",mtnairtreecare@gmail.com,https://www.mountainairtreecare.com/,,,,,verified,"30 Westgate Pkwy",Asheville,NC,28806,US
"East Valley Tree","(828) 279-6190",eastvalleytrees@gmail.com,https://www.eastvalleytrees.com/,,,,,,"29 Madeline Ave",Ashville,NC,28806,US
"R & K Tree Service","(828) 216-6407",rmkenwood@gmail.com,http://rnktrees.com/,,,,,verified,"86 Alexander Rd",Weaverville,NC,28787,US
"Landarbor Consulting","(828) 298-3520",consult@landarbor.com,https://landarbor.com/,,,,,unclaimed,"49 Old Farm School Rd",Asheville,NC,28805,US
"Davis Tree Experts","(828) 216-3449",davistreeexperts49@gmail.com,https://www.davistreeexperts.com/,,,,,unclaimed,"2490 Lower Gabriels Creek Rd","Mars Hill",NC,28754,US
"French Broad Tree Service","(828) 458-8992",david@frenchbroadtreeservice.com,https://frenchbroadtreeservice.com/,,,,,verified,"1021 7th Ave E",Hendersonville,NC,28792,US
"Third Stone Design LLC","(828) 450-8154",jeff@thirdstonedesign.com,https://thirdstonedesign.com/,,,,,unclaimed,"50 Knob Hill Rd",Asheville,NC,28806,US
"Sky's the Limit Tree Service","(828) 676-5653",skysthelimitavl@gmail.com,https://www.treeservicesstl.com/,,,,,,,Asheville,NC,,US
"Carolina Tree Removal Pros Of Asheville","(828) 220-5488",wilmington@nctreeremovalservice.com,http://nctreeremovalservice.com/asheville-nc,,,,,verified,"802 Fairview Rd",Asheville,Nc,28803,US
"Native Roots NC","(828) 279-0783",nativerootsnc@gmail.com,https://www.nativerootsnc.com/,,,,,unclaimed,"5 Woodland Ct",Asheville,NC,28805,US
"All Pro Tree & Crane, Inc.","(828) 674-7336",allprotreeandcrane@gmail.com,https://allprotreeandcranenc.com/,,,,,verified,"91 Bradley Branch Rd",Arden,NC,28704,US
"Banks Tree Service","(828) 667-3150",grayhavenstateharbor@gmail.com,http://www.bankstreeservice.com/,,,,,verified,"1775 Smoky Park Hwy",Candler,NC,28715,US
"Maynor's Tree Service","(910) 534-4305",maynortreeservice@gmail.com,https://maynortreeservice.com/,,,,,verified,"890 Back Swamp Rd",Arden,NC,28360,US
"Trees Unlimited","(828) 215-4827",treesunlimited@gmail.com,https://www.treesunlimitedwnc.com,,,,,,"647 Town Mountain Rd Ste 303",Asheville,NC,28806,US
"Landscape and Turf Solutions","(828) 699-1302",sales@landscapeandturfsolutions.com,http://www.landscapeandturfsolutions.com,,,,,unclaimed,"11 Devin Wy",Fletcher,NC,28732,US
"Schofield Tree Patrol","(828) 246-2801",prestonschofieldtree@gmail.com,http://www.treepatrol1.com,,,,,,"558 Miami Dr",Waynesville,NC,28745,US
"Ex Terra","(864) 565-9889",cpierson@exterraliving.com,https://www.exterraliving.com,,,,,verified,"1708-C Augusta St",Greenville,SC,29605,US
"Black Mountain Arborists","(828) 545-1913",bmtarborists@gmail.com,http://www.bmt-arborists.com,,,,,unclaimed,"118 Cherry St","Black Mountain",NC,28711,US
BEMK,"(828) 456-4500",kirkpatrickmichael1132@gmail.com,http://bemkgrading.com,,,,,verified,"808 Owl Ridge Rd",Waynesville,NC,28786,US
"Lawn Asheville","(828) 209-8864",joy@lawnasheville.com,https://www.lawnasheville.com,,,,,verified,"49 Sky Exchange Dr",Asheville,NC,28803,US
"Elijah Home Improvement & Landscape","(828) 280-6227",elijahlandscape@gmail.com,https://elijah-home-improvement-landscape.business.site,,,,,verified,"31 Orchard Dr",Arden,NC,28704,US
"Mountain Landscapes","(828) 712-0298",mountainlandscapesllc@gmail.com,http://mountainlandscapes.biz,,,,,unclaimed,"2586 US Hwy 70",Swannanoa,NC,28778,US
"EPILEF Stonework & Landscaping","(828) 242-1947",epilef.wnc@gmail.com,http://www.epilefwnc.com,,,,,,,Asheville,NC,28806,US
"MHI Lawn Care & Landscaping","(828) 280-9978",omolina753@gmail.com,https://mhilawncarelandscaping.com,,,,,,,Asheville,NC,28806,US
"MHI - Landscaping & Septic Services","(828) 551-0700",swamprabbitseptic@gmail.com,http://www.swamprabbitseptic.com/,,,,,unclaimed,"8166 Boylston Hwy","Mills River",NC,28759,US
"Smoky Mountain Tree Specialties","(828) 712-1807",smokymountaintree@gmail.com,,,,,,verified,"444 Rugged Top Rd",Hendersonville,NC,28792,US
"Websters tree service","(828) 768-4112",dwebster7711@gmail.com,,,,,,verified,Fletcher,Asheville,NC,28732,US
"Stone Crazy Garden","(828) 883-4746",info@ntlwnc.com,,,,,,unclaimed,"176 Williamson Creek Rd","Pisgah Forest",NC,28768,US
"Top to Bottom tree service","(828) 777-8826",chazmathews237@gmail.com,,,,,,,"Jupiter Rd",Asheville,NC,28787,US
"Affordable Tree Care of Asheville","(828) 779-1930",,https://www.affordabletreecareasheville.com/,,,,,verified,"801 Ridge Rd",Asheville,NC,28806,US
"Timber Tree Services","(828) 299-0220",,https://ashevilleexcavation.com/,,,,,unclaimed,"811 Tunnel Rd",Asheville,NC,28805,US
"Marsam Tree Service","(828) 231-3941",,http://marsamtreeservice.com/,,,,,verified,"644 Long Shoals Rd",Arden,NC,28704,US
"Anders Tree Service","(828) 206-9991",,http://www.anderstreeservicenc.com/,,,,,verified,"66 Ridge Creek Dr",Weaverville,NC,28804,US
"CLEAR CUT TREE SERVICE","(828) 284-6626",,http://www.clearcuttreeservices.com/,,,,,verified,"Old Candler Town Rd",Candler,NC,28715,US
"Arborcare of Asheville","(828) 645-8733",,http://www.arborcareofasheville.com/,,,,,verified,"3 Shadowbrook Ln",Weaverville,NC,28787,US
"Asheville Stump Grinding LLC","(828) 273-8054",,http://stumpgrindingasheville.company/,,,,,verified,"819 Clarks Chapel Rd",Weaverville,NC,28787,US
"Baileys Tree Service","(828) 515-1073",,https://www.baileystreeservice.net/contact-us/,,,,,verified,"7 Greenvale Dr",Leicester,NC,28748,US
"Advanced Landscaping","(828) 778-4272",,https://ashevilleadvancedlandscaping.com/,,,,,verified,"126 Lakeshore Dr",Asheville,NC,28804,US
"WMF Land Services","(828) 593-8882",,http://wmflandservices.com/,,,,,verified,"925 Max Patch Rd",Clyde,NC,28803,US
"English Tree Service","(828) 777-5707",,https://english-tree-service.business.site/,,,,,verified,"1393 US 19 Hwy","Mars Hill",NC,28754,US
"The Lawn Company","(828) 242-7452",,http://thelawncousa.com/,,,,,verified,"Blake Dr",Arden,NC,28704,US
"Kilpatrick Tree Service","(828) 691-7480",,http://kilpatricktreeservice.com/,,,,,verified,"2925 Kanuga Rd",Hendersonville,NC,28739,US
"Arborist Pros Tree Services","(828) 337-3891",,https://ashevillewebuyjunkcars.com/,,,,,unclaimed,"14 Old Chunns Cove Rd",Asheville,NC,28801,US
"Baileys Tree Services","(828) 683-4932",,https://maltbatreeservice.com/,,,,,unclaimed,"5 Green Valley Rd",Leicester,NC,28748,US
"Earth Works Tree Service & Landscaping","(828) 774-1984",,https://earthworkslandscaping.biz/,,,,,unclaimed,"24 Sunny Ridge Dr",Asheville,NC,28804,US
"Rodman Landscaping & Design LLC","(828) 808-9848",,http://www.rodmanlandscaping.com/,,,,,verified,"1 Boulder Ridge Rd",Asheville,NC,28806,US
"Deeses Tree Services","(828) 421-7691",,https://deeses-tree-services.business.site/,,,,,verified,"28 Todd Rd",Clyde,NC,28721,US
"Landscaping By Nicholas, Inc.","(828) 450-9943",,http://www.landscapedesigninashevillenc.com/,,,,,unclaimed,"201 Fernstone Rd",Asheville,NC,28804,US
"NICOLAS TREE SERVICE","(828) 467-5253",,https://nicolaslandscapingandtreeservice.business.site/,,,,,verified,"69 Ridgecrest Dr lot 17","Spruce Pine",NC,28777,US
"C & M Crane Service LLC","(828) 974-1617",,https://woodfincranerentals.com/,,,,,verified,"187 Jonestown Rd",Woodfin,NC,28804,US
"Greenscapes Landscaping & Retaining Walls","(828) 713-0100",,http://ncgreenscapes.com/,,,,,verified,"875 Tunnel Rd #A",Asheville,NC,28805,US
"M & D Landscaping","(828) 230-1343",,https://m-d-landscaping.business.site/,,,,,verified,"59 Whispering Pines Dr",Asheville,NC,28803,US
"Ready Freddie Junk Removal Service","(828) 423-7341",,http://readyfreddies.com/,,,,,verified,"28 Trellis Court",Asheville,NC,28806,US
"The Land of the Sky Tree Service","(828) 677-2741",,http://www.treeremoval-asheville.com/,,,,,verified,"22 S Pack Square",Asheville,NC,28801,US
"Mountain Top Tree Service, LLC","(828) 283-1477",,http://mountaintoptreeservicellc.com/,,,,,verified,"2451 Soco Rd","Maggie Valley",NC,28751,US
"Nick Greenes Tree Services","(828) 693-5489",,https://nickgreenestreeservice.com/,,,,,verified,"3765 Evans Rd",Hendersonville,NC,28739,US
"American Tree Service","(828) 273-8525",,https://www.american-tree-service-nc.com/,,,,,,"57 Crestfield Ave",Asheville,NC,28804,US
"Alvarez Tree Service and Concrete Contractor","(828) 273-8742",,https://alvareztreeserviceandconcrete.com/,,,,,verified,"275 Deaverview Rd",Asheville,NC,28806,US
"Asheville Arborists","(828) 778-8733",,https://www.treeservice-ashevillenc.com/,,,,,verified,"36 Old Charlotte Hwy",Asheville,NC,28803,US
"A Trusty Shovel","(828) 423-1899",,https://atrustyshovel.business.site/,,,,,,"34 Carrier St",Asheville,NC,28806,US
"JOSE'S LANDSCAPING","(828) 708-5916",,https://joses-landscaping-landscaperinashevile.business.site/,,,,,verified,"158 W Oakview Rd",Asheville,NC,28806,US
"Hemlock Healers, Inc.","(828) 571-0189",,http://www.hemlockhealers.com/,,,,,,,Asheville,NC,,US
"Carolina Landscaping","(828) 484-7755",,http://www.carolinalandscapingdesign.com/,,,,,verified,"6 Garrison Rd",Weaverville,NC,28787,US
"Riverside Stump Dump Inc","(828) 258-7339",,http://www.themulchlady.com/,,,,,verified,"620 Riverside Dr",Asheville,NC,28801,US
"Frank's Hardscape","(828) 489-1726",,https://frankshardscapeinc.com,,,,,,,Hendersonville,NC,28792,US
"Hidden Treasures","(828) 674-0901",,http://hiddentreasuresrealty.com,,,,,verified,"52 Baby Jane Ln",Hendersonville,NC,28792,US
"Tellez's Landscaping Â and Land Care","(828) 774-9106",,https://tellez-lawn-land-care-landscaping.negocio.site,,,,,verified,"18 Dustin Dr",Swannanoa,NC,28778,US
"Klean Kut Cleaning & Lawn Service","(828) 891-9369",,https://fzr-landscaping-more.business.site/,,,,,verified,"2836 Brannon Rd","Horse Shoe",NC,28742,US
"Mountain Arborists Tree Services","(828) 243-9559",,,,,,,unclaimed,"Arden, NC 28704",Arden,NC,28704,US
"Baxters Landscaping and Tree Service","(828) 506-1993",,,,,,,verified,"3239 US Hwy 74 E",Whittier,NC,28779,US
"Royal Park Property Maintenance and Landscaping","(828) 676-4118",,,,,,,verified,"34 Bearfoot Ln",Hendersonville,NC,28792,US
"Herron Tree Service & Lot Clearing","(828) 768-9529",,,,,,,,"43 N College St",Weaverville,Nc,28787,US
"R & K Tree Service","(828) 658-0337",,,,,,,,"15 S Main St",Weaverville,NC,28787,US
"Asheville R Pro Select","(828) 572-8207",,,,,,,unclaimed,"75 Broadway St",Asheville,NC,28801,US
"ok outdoor","(828) 702-1499",,,,,,,unclaimed,"21 Mimidis Ln",Swannanoa,NC,28778,US
"Eberle Wood Products","(828) 645-6548",,,,,,,unclaimed,"191 Moody Cove Rd",Weaverville,NC,28787,US
"Davis Stump Grinding","(828) 707-2089",,,,,,,unclaimed,"Charlotte Hwy",Fairview,NC,28730,US
"Adams Enterprises","(828) 684-4333",,,,,,,unclaimed,"Fletcher, NC 28732",Fletcher,NC,28732,US
"Family Tree Care","(828) 337-0735",,,,,,,verified,"441 Hillcrest Cir",Hendersonville,NC,28792,US
"Arbor Artists Tree Service","(828) 231-0618",,,,,,,unclaimed,"7091 US-25",Marshall,NC,28753,US
"Atlas Tree Professionals","(828) 767-0575",,,,,,,unclaimed,"70 Whitaker Ln",Fairview,NC,28730,US
"Poplar Tree Service","(828) 399-9791",,,,,,,verified,"442 Westwood Cir",Waynesville,NC,28786,US
"Like A Breeze Excavation and Land Management","(828) 772-0503",,,,,,,,,Candler,NC,28715,US
"828 Moving & Landscaping","(828) 458-3198",,,,,,,,,Asheville,NC,28806,US
"One Shot Pressure Washing","(828) 620-3801",,,,,,,,,Asheville,NC,28803,US
"Garden Thyme Landscaping","(828) 776-5986",,,,,,,,,Swannanoa,NC,28778,US
"Mestanza Landscape","(828) 545-8251",,,,,,,,,Hendersonville,NC,28739,US
"Oka Landscaping","(828) 388-4044",,,,,,,,,Hendersonville,NC,28792,US
"Halford Stump Grinding","(828) 545-1997",,,,,,,,,"Black Mountain",NC,28711,US
"Camacho landscaping","(828) 550-6554",,,,,,,,,Waynesville,NC,28786,US
"Mr Hof Construction","(828) 330-8839",,,,,,,,,Marshall,NC,28754,US
"HAZEL TREE COUNSELING","(828) 907-1392",,,,,,,,"56 CLAYTON St",ASHEVILLE,NC,28801,US
"T & H Tree Service","(828) 301-4260",,,,,,,,"23 Old Stagecoach Rd",Swannanoa,Nc,28778,US
"J & L Tree Service","(828) 298-6059",,,,,,,,"11 Jordan Rd",Swannanoa,NC,28778,US
"Dirt Tree Water Rock","(828) 230-9729",,,,,,,,"8 Front St",Asheville,NC,28804,US
"R & S Tree Service","(828) 778-3139",,,,,,,,"556 Long Shoals Rd",Arden,NC,28704,US
"Rogers Tree Service","(828) 702-3490",,,,,,,,"34 Winding Spring Rd",Candler,NC,28715,US
"Bevans Tree Service","(828) 782-6989",,,,,,,,"17 Northside Dr",Asheville,NC,28804,US
"Tuliptree Dental Management Services, Inc.","(828) 251-9351",,,,,,,,"36 Orange St",Asheville,NC,28801,US
"Crickle Crack Tree","(828) 505-8078",,,,,,,,"455 N Louisiana Ave",Asheville,Nc,28806,US
"Top Notch Tree Service","(508) 892-4300",,,,,,,,"14 Red Rose Lane",Leicester,Nc,28748,US
"Garys Tree Service","(828) 484-9073",,,,,,,,"24 Red Oak School Rd",Weaverville,Nc,28787,US
